{"type": "FeatureCollection", "features": [ {"type": "Feature", "properties": {"norad_id": 36470, "name": "COSMOS 2251 DEB", "group": "cosmos-2251-debris", "lat": -39.036557462133096, "lon": -97.82206512314696, "alt_km": 567.9994961157217, "timestamp": "2025-12-02T10:50:47.673108+00:00", "meta": {"OBJECT_NAME": "COSMOS 2251 DEB", "OBJECT_ID": "1993-036BBV", "EPOCH": "2025-12-02T03:03:18.135936", "MEAN_MOTION": 15.05586615, "ECCENTRICITY": 0.0021849, "INCLINATION": 73.8455, "RA_OF_ASC_NODE": 276.4446, "ARG_OF_PERICENTER": 104.1241, "MEAN_ANOMALY": 256.2378, "EPHEMERIS_TYPE": 0, "CLASSIFICATION_TYPE": "U", "NORAD_CAT_ID": 36470, "ELEMENT_SET_NO": 999, "REV_AT_EPOCH": 65934, "BSTAR": 0.004011, "MEAN_MOTION_DOT": 0.00058582, "MEAN_MOTION_DDOT": 0}, "tle": {"line1": "1 36470U 93036BBV 25336.12729324  .00058582  00000+0  40110-2 0  9995", "line2": "2 36470  73.8455 276.4446 0021849 104.1241 256.2378 15.05586615659346"}}, "geometry": {"type": "Point", "coordinates": [-97.82206512314696, -39.036557462133096]}}, {"type": "Feature", "properties": {"norad_id": 36528, "name": "COSMOS 2251 DEB", "group": "cosmos-2251-debris", "lat": -38.1549665080341, "lon": 150.9547881199408, "alt_km": 810.7429940303673, "timestamp": "2025-12-02T10:50:47.673118+00:00", "meta": {"OBJECT_NAME": "COSMOS 2251 DEB", "OBJECT_ID": "1993-036BCN", "EPOCH": "2025-11-28T19:45:32.756256", "MEAN_MOTION": 14.30521775, "ECCENTRICITY": 0.00858193, "INCLINATION": 74.0168, "RA_OF_ASC_NODE": 170.5765, "ARG_OF_PERICENTER": 223.2164, "MEAN_ANOMALY": 136.2231, "EPHEMERIS_TYPE": 0, "CLASSIFICATION_TYPE": "U", "NORAD_CAT_ID": 36528, "ELEMENT_SET_NO": 999, "REV_AT_EPOCH": 64228, "BSTAR": 0.00075224171, "MEAN_MOTION_DOT": 2.015e-05, "MEAN_MOTION_DDOT": 0}, "tle": {"line1": "1 36528U 93036BCN 25332.82329579  .00002015  00000+0  75224-3 0  9995", "line2": "2 36528  74.0168 170.5765 0085819 223.2164 136.2231 14.30521775642289"}}, "geometry": {"type": "Point", "coordinates": [150.9547881199408, -38.1549665080341]}}, {"type": "Feature", "properties": {"norad_id": 36533, "name": "COSMOS 2251 DEB", "group": "cosmos-2251-debris", "lat": 50.20174786675599, "lon": -65.96339708328026, "alt_km": 753.8679593020788, "timestamp": "2025-12-02T10:50:47.673128+00:00", "meta": {"OBJECT_NAME": "COSMOS 2251 DEB", "OBJECT_ID": "1993-036BCT", "EPOCH": "2025-12-01T04:26:58.600608", "MEAN_MOTION": 14.49745776, "ECCENTRICITY": 0.0049073, "INCLINATION": 74.0099, "RA_OF_ASC_NODE": 136.5489, "ARG_OF_PERICENTER": 287.7686, "MEAN_ANOMALY": 71.8122, "EPHEMERIS_TYPE": 0, "CLASSIFICATION_TYPE": "U", "NORAD_CAT_ID": 36533, "ELEMENT_SET_NO": 999, "REV_AT_EPOCH": 84317, "BSTAR": 0.00049944, "MEAN_MOTION_DOT": 1.925e-05, "MEAN_MOTION_DDOT": 0}, "tle": {"line1": "1 36533U 93036BCT 25335.18540047  .00001925  00000+0  49944-3 0  9997", "line2": "2 36533  74.0099 136.5489 0049073 287.7686  71.8122 14.49745776843172"}}, "geometry": {"type": "Point", "coordinates": [-65.96339708328026, 50.20174786675599]}}, {"type": "Feature", "properties": {"norad_id": 36539, "name": "COSMOS 2251 DEB", "group": "cosmos-2251-debris", "lat": -20.57005446587247, "lon": 68.6313960150296, "alt_km": 709.7662186978014, "timestamp": "2025-12-02T10:50:47.673138+00:00", "meta": {"OBJECT_NAME": "COSMOS 2251 DEB", "OBJECT_ID": "1993-036BCZ", "EPOCH": "2025-12-01T08:37:04.010016", "MEAN_MOTION": 14.59167391, "ECCENTRICITY": 0.00278715, "INCLINATION": 74.0238, "RA_OF_ASC_NODE": 76.8866, "ARG_OF_PERICENTER": 223.5555, "MEAN_ANOMALY": 136.341, "EPHEMERIS_TYPE": 0, "CLASSIFICATION_TYPE": "U", "NORAD_CAT_ID": 36539, "ELEMENT_SET_NO": 999, "REV_AT_EPOCH": 83781, "BSTAR": 0.0010197061, "MEAN_MOTION_DOT": 4.804e-05, "MEAN_MOTION_DDOT": 0}, "tle": {"line1": "1 36539U 93036BCZ 25335.35907419  .00004804  00000+0  10197-2 0  9998", "line2": "2 36539  74.0238  76.8866 0027871 223.5555 136.3410 14.59167391837816"}}, "geometry": {"type": "Point", "coordinates": [68.6313960150296, -20.57005446587247]}}, {"type": "Feature", "properties": {"norad_id": 36540, "name": "COSMOS 2251 DEB", "group": "cosmos-2251-debris", "lat": -27.46807270943861, "lon": -168.45632986782422, "alt_km": 698.6612922412514, "timestamp": "2025-12-02T10:50:47.673148+00:00", "meta": {"OBJECT_NAME": "COSMOS 2251 DEB", "OBJECT_ID": "1993-036BDA", "EPOCH": "2025-12-01T21:48:23.135904", "MEAN_MOTION": 14.58319628, "ECCENTRICITY": 0.0015436, "INCLINATION": 74.0297, "RA_OF_ASC_NODE": 201.1393, "ARG_OF_PERICENTER": 271.8628, "MEAN_ANOMALY": 88.0769, "EPHEMERIS_TYPE": 0, "CLASSIFICATION_TYPE": "U", "NORAD_CAT_ID": 36540, "ELEMENT_SET_NO": 999, "REV_AT_EPOCH": 85852, "BSTAR": 0.0011842, "MEAN_MOTION_DOT": 5.462e-05, "MEAN_MOTION_DDOT": 0}, "tle": {"line1": "1 36540U 93036BDA 25335.90860111  .00005462  00000+0  11842-2 0  9997", "line2": "2 36540  74.0297 201.1393 0015436 271.8628  88.0769 14.58319628858524"}}, "geometry": {"type": "Point", "coordinates": [-168.45632986782422, -27.46807270943861]}}, {"type": "Feature", "properties": {"norad_id": 36550, "name": "COSMOS 2251 DEB", "group": "cosmos-2251-debris", "lat": -61.96051510329252, "lon": 63.84033906365579, "alt_km": 754.0254543336923, "timestamp": "2025-12-02T10:50:47.673158+00:00", "meta": {"OBJECT_NAME": "COSMOS 2251 DEB", "OBJECT_ID": "1993-036BDL", "EPOCH": "2025-11-29T22:48:25.081920", "MEAN_MOTION": 14.27140631, "ECCENTRICITY": 0.00789359, "INCLINATION": 74.0446, "RA_OF_ASC_NODE": 215.8731, "ARG_OF_PERICENTER": 269.2877, "MEAN_ANOMALY": 89.9226, "EPHEMERIS_TYPE": 0, "CLASSIFICATION_TYPE": "U", "NORAD_CAT_ID": 36550, "ELEMENT_SET_NO": 999, "REV_AT_EPOCH": 84413, "BSTAR": 0.00064991596, "MEAN_MOTION_DOT": 1.613e-05, "MEAN_MOTION_DDOT": 0}, "tle": {"line1": "1 36550U 93036BDL 25333.95029030  .00001613  00000+0  64992-3 0  9997", "line2": "2 36550  74.0446 215.8731 0078935 269.2877  89.9226 14.27140631844131"}}, "geometry": {"type": "Point", "coordinates": [63.84033906365579, -61.96051510329252]}}, {"type": "Feature", "properties": {"norad_id": 36551, "name": "COSMOS 2251 DEB", "group": "cosmos-2251-debris", "lat": 41.41061151611901, "lon": 50.652302433959086, "alt_km": 537.8269393384744, "timestamp": "2025-12-02T10:50:47.673168+00:00", "meta": {"OBJECT_NAME": "COSMOS 2251 DEB", "OBJECT_ID": "1993-036BDM", "EPOCH": "2025-12-01T04:16:57.552096", "MEAN_MOTION": 15.01965558, "ECCENTRICITY": 0.00505004, "INCLINATION": 73.8879, "RA_OF_ASC_NODE": 38.501, "ARG_OF_PERICENTER": 349.5182, "MEAN_ANOMALY": 10.4947, "EPHEMERIS_TYPE": 0, "CLASSIFICATION_TYPE": "U", "NORAD_CAT_ID": 36551, "ELEMENT_SET_NO": 999, "REV_AT_EPOCH": 66758, "BSTAR": 0.0014137691, "MEAN_MOTION_DOT": 0.00019039, "MEAN_MOTION_DDOT": 0}, "tle": {"line1": "1 36551U 93036BDM 25335.17844389  .00019039  00000+0  14138-2 0  9993", "line2": "2 36551  73.8879  38.5010 0050500 349.5182  10.4947 15.01965558667585"}}, "geometry": {"type": "Point", "coordinates": [50.652302433959086, 41.41061151611901]}}, {"type": "Feature", "properties": {"norad_id": 36557, "name": "COSMOS 2251 DEB", "group": "cosmos-2251-debris", "lat": -28.887697909646075, "lon": -24.362790807676777, "alt_km": 641.93277486036, "timestamp": "2025-12-02T10:50:47.673178+00:00", "meta": {"OBJECT_NAME": "COSMOS 2251 DEB", "OBJECT_ID": "1993-036BDT", "EPOCH": "2025-11-29T20:08:28.959648", "MEAN_MOTION": 14.77361907, "ECCENTRICITY": 0.00205231, "INCLINATION": 73.9794, "RA_OF_ASC_NODE": 151.6562, "ARG_OF_PERICENTER": 302.0455, "MEAN_ANOMALY": 57.8725, "EPHEMERIS_TYPE": 0, "CLASSIFICATION_TYPE": "U", "NORAD_CAT_ID": 36557, "ELEMENT_SET_NO": 999, "REV_AT_EPOCH": 33706, "BSTAR": 0.0024129009, "MEAN_MOTION_DOT": 0.00017224, "MEAN_MOTION_DDOT": 0}, "tle": {"line1": "1 36557U 93036BDT 25333.83922407  .00017224  00000+0  24129-2 0  9993", "line2": "2 36557  73.9794 151.6562 0020523 302.0455  57.8725 14.77361907337062"}}, "geometry": {"type": "Point", "coordinates": [-24.362790807676777, -28.887697909646075]}}, {"type": "Feature", "properties": {"norad_id": 36558, "name": "COSMOS 2251 DEB", "group": "cosmos-2251-debris", "lat": -72.98423323178581, "lon": 63.236563197364354, "alt_km": 706.1981617304209, "timestamp": "2025-12-02T10:50:47.673188+00:00", "meta": {"OBJECT_NAME": "COSMOS 2251 DEB", "OBJECT_ID": "1993-036BDU", "EPOCH": "2025-11-30T14:44:20.411232", "MEAN_MOTION": 14.55224096, "ECCENTRICITY": 0.0013208, "INCLINATION": 74.0432, "RA_OF_ASC_NODE": 177.4971, "ARG_OF_PERICENTER": 265.9101, "MEAN_ANOMALY": 94.0552, "EPHEMERIS_TYPE": 0, "CLASSIFICATION_TYPE": "U", "NORAD_CAT_ID": 36558, "ELEMENT_SET_NO": 999, "REV_AT_EPOCH": 85092, "BSTAR": 0.00073526, "MEAN_MOTION_DOT": 3.158e-05, "MEAN_MOTION_DDOT": 0}, "tle": {"line1": "1 36558U 93036BDU 25334.61412513  .00003158  00000+0  73526-3 0  9990", "line2": "2 36558  74.0432 177.4971 0013208 265.9101  94.0552 14.55224096850920"}}, "geometry": {"type": "Point", "coordinates": [63.236563197364354, -72.98423323178581]}}, {"type": "Feature", "properties": {"norad_id": 36559, "name": "COSMOS 2251 DEB", "group": "cosmos-2251-debris", "lat": 12.001677658113701, "lon": -156.0774310022017, "alt_km": 953.2106362286813, "timestamp": "2025-12-02T10:50:47.673198+00:00", "meta": {"OBJECT_NAME": "COSMOS 2251 DEB", "OBJECT_ID": "1993-036BDV", "EPOCH": "2025-12-02T03:11:21.358176", "MEAN_MOTION": 13.95051105, "ECCENTRICITY": 0.0260429, "INCLINATION": 74.1296, "RA_OF_ASC_NODE": 27.9346, "ARG_OF_PERICENTER": 63.9976, "MEAN_ANOMALY": 298.7727, "EPHEMERIS_TYPE": 0, "CLASSIFICATION_TYPE": "U", "NORAD_CAT_ID": 36559, "ELEMENT_SET_NO": 999, "REV_AT_EPOCH": 80946, "BSTAR": 0.0030993, "MEAN_MOTION_DOT": 5.524e-05, "MEAN_MOTION_DDOT": 0}, "tle": {"line1": "1 36559U 93036BDV 25336.13288609  .00005524  00000+0  30993-2 0  9996", "line2": "2 36559  74.1296  27.9346 0260429  63.9976 298.7727 13.95051105809462"}}, "geometry": {"type": "Point", "coordinates": [-156.0774310022017, 12.001677658113701]}}]}